OBJECT_NAME,OBJECT_ID,EPOCH,MEAN_MOTION,ECCENTRICITY,INCLINATION,RA_OF_ASC_NODE,ARG_OF_PERICENTER,MEAN_ANOMALY,EPHEMERIS_TYPE,CLASSIFICATION_TYPE,NORAD_CAT_ID,ELEMENT_SET_NO,REV_AT_EPOCH,BSTAR,MEAN_MOTION_DOT,MEAN_MOTION_DDOT
EYESAT A (AO-27),1993-061C,2026-05-20T10:47:41.023104,14.30933790,.0008506,98.6890,207.8716,174.0771,186.0514,0,U,22825,999,70303,.39552E-4,.59E-6,0
ITAMSAT (IO-26),1993-061D,2026-05-20T03:47:17.496960,14.31359768,.00093292,98.6837,207.4944,159.2156,200.9408,0,U,22826,999,70330,.37939993E-4,.56E-6,0
RADIO ROSTO (RS15),1994-085A,2026-05-20T12:48:29.706624,11.27583607,.0155178,64.8186,347.9414,8.9535,351.4101,0,U,23439,999,29278,-.35253E-4,-.44E-6,0
JAS-2 (FO-29),1996-046B,2026-05-20T10:29:38.394816,13.53272847,.0350083,98.5267,353.1067,168.2979,192.6569,0,U,24278,999,46941,.3818E-4,.4E-7,0
FORTE,1997-047A,2026-05-20T05:09:45.554112,14.27932275,.0023973,69.9532,77.2009,311.4897,48.4167,0,U,24920,999,49469,.62779E-4,.98E-6,0
TECHSAT 1B (GO-32),1998-043D,2026-05-20T11:00:43.521120,14.24422309,.0000591,99.0064,132.5196,354.4500,5.6671,0,U,25397,999,44738,.28008E-4,.18E-6,0
ISS (ZARYA),1998-067A,2026-05-20T12:28:54.270912,15.49283153,.0007497,51.6328,77.0641,79.3410,280.8422,0,U,25544,999,56746,.10084E-3,.5164E-4,0
IMAGE,2000-017A,2026-05-20T09:48:00.949248,1.68665746,.7452478,94.2067,315.0050,290.9630,8.3365,0,U,26113,999,16103,.33926E-1,.106E-5,0
CLUSTER II-FM7 (SAMBA),2000-041A,2026-05-19T03:11:14.910144,0.44883482,.90185594,149.8437,45.8867,262.6588,0.3747,0,U,26410,999,2018,0,.6663E-4,0
CLUSTER II-FM8 (TANGO),2000-045B,2026-05-19T03:31:59.188512,0.44397908,.90257633,150.1023,46.8868,263.5226,0.1578,0,U,26464,999,2017,0,.6855E-4,0
ODIN,2001-007A,2026-05-20T01:45:45.458784,15.67358874,.00037523,97.3902,179.3899,179.7145,180.4119,0,U,26702,999,38498,.93348841E-3,.101529E-2,0
OMNI-M1,2001-026A,2026-05-19T10:28:09.458112,3.92401339,.00151862,44.8407,251.8908,48.7845,311.3788,0,U,26857,999,20444,0,-.14E-6,0
PCSAT (NO-44),2001-043C,2026-05-20T10:20:02.723712,14.31944109,.0006215,67.0507,316.0628,263.6976,96.3418,0,U,26931,999,28647,.52653E-4,.58E-6,0
PROBA-1,2001-049B,2026-05-20T12:32:45.159360,15.07373850,.0053937,97.9599,148.0916,215.0466,144.7207,0,U,26958,999,33945,.34014E-4,.458E-5,0
SAUDISAT 1C (SO-50),2002-058C,2026-05-20T12:10:43.055328,14.82981742,.0075612,64.5520,214.6211,267.5410,91.7038,0,U,27607,999,26035,.83989E-4,.56E-5,0
CORIOLIS,2003-001A,2026-05-20T07:01:51.845952,14.19936382,.0012881,98.7133,147.6035,295.5078,64.4766,0,U,27640,999,21026,.42115E-4,.46E-6,0
CUTE-1 (CO-55),2003-031E,2026-05-20T06:56:12.520320,14.24316564,.0008286,98.6744,149.1989,266.0889,93.9343,0,U,27844,999,18770,.95378E-4,.176E-5,0
CUBESAT XI-IV (CO-57),2003-031J,2026-05-20T11:23:06.198720,14.23604190,.0008236,98.6775,149.1168,286.8725,73.1550,0,U,27848,999,18743,.78169E-4,.134E-5,0
MOZHAETS 4 (RS22),2003-042A,2026-05-20T12:13:53.132736,14.73412761,.0011296,98.3465,324.0878,3.4893,80.9781,0,U,27939,999,21147,.10681E-3,.639E-5,0
