EYESAT A (AO-27)        
1 22825U 93061C   26140.44978036  .00000059  00000+0  39552-4 0  9993
2 22825  98.6890 207.8716 0008506 174.0771 186.0514 14.30933790703035
ITAMSAT (IO-26)         
1 22826U 93061D   26140.15784140  .00000056  00000+0  37940-4 0  9999
2 22826  98.6837 207.4944 0009329 159.2156 200.9408 14.31359768703308
RADIO ROSTO (RS15)      
1 23439U 94085A   26140.53367716 -.00000044  00000+0 -35253-4 0  9999
2 23439  64.8186 347.9414 0155178   8.9535 351.4101 11.27583607292788
JAS-2 (FO-29)           
1 24278U 96046B   26140.43724994  .00000004  00000+0  38180-4 0  9990
2 24278  98.5267 353.1067 0350083 168.2979 192.6569 13.53272847469412
FORTE                   
1 24920U 97047A   26140.21511058  .00000098  00000+0  62779-4 0  9991
2 24920  69.9532  77.2009 0023973 311.4897  48.4167 14.27932275494699
TECHSAT 1B (GO-32)      
1 25397U 98043D   26140.45883705  .00000018  00000+0  28008-4 0  9993
2 25397  99.0064 132.5196 0000591 354.4500   5.6671 14.24422309447381
ISS (ZARYA)             
1 25544U 98067A   26140.52007258  .00005164  00000+0  10084-3 0  9993
2 25544  51.6328  77.0641 0007497  79.3410 280.8422 15.49283153567468
IMAGE                   
1 26113U 00017A   26140.40834432  .00000106  00000+0  33926-1 0  9992
2 26113  94.2067 315.0050 7452478 290.9630   8.3365  1.68665746161038
CLUSTER II-FM7 (SAMBA)  
1 26410U 00041A   26139.13281146  .00006663  00000+0  00000+0 0  9994
2 26410 149.8437  45.8867 9018559 262.6588   0.3747  0.44883482 20186
CLUSTER II-FM8 (TANGO)  
1 26464U 00045B   26139.14721283  .00006855  00000+0  00000+0 0  9992
2 26464 150.1023  46.8868 9025763 263.5226   0.1578  0.44397908 20179
ODIN                    
1 26702U 01007A   26140.07344281  .00101529  00000+0  93349-3 0  9995
2 26702  97.3902 179.3899 0003752 179.7145 180.4119 15.67358874384986
OMNI-M1                 
1 26857U 01026A   26139.43622058 -.00000014  00000+0  00000+0 0  9992
2 26857  44.8407 251.8908 0015186  48.7845 311.3788  3.92401339204446
PCSAT (NO-44)           
1 26931U 01043C   26140.43058708  .00000058  00000+0  52653-4 0  9994
2 26931  67.0507 316.0628 0006215 263.6976  96.3418 14.31944109286471
PROBA-1                 
1 26958U 01049B   26140.52274490  .00000458  00000+0  34014-4 0  9992
2 26958  97.9599 148.0916 0053937 215.0466 144.7207 15.07373850339458
SAUDISAT 1C (SO-50)     
1 27607U 02058C   26140.50744277  .00000560  00000+0  83989-4 0  9997
2 27607  64.5520 214.6211 0075612 267.5410  91.7038 14.82981742260359
CORIOLIS                
1 27640U 03001A   26140.29296118  .00000046  00000+0  42115-4 0  9990
2 27640  98.7133 147.6035 0012881 295.5078  64.4766 14.19936382210264
CUTE-1 (CO-55)          
1 27844U 03031E   26140.28903380  .00000176  00000+0  95378-4 0  9997
2 27844  98.6744 149.1989 0008286 266.0889  93.9343 14.24316564187709
CUBESAT XI-IV (CO-57)   
1 27848U 03031J   26140.47437730  .00000134  00000+0  78169-4 0  9996
2 27848  98.6775 149.1168 0008236 286.8725  73.1550 14.23604190187434
MOZHAETS 4 (RS22)       
1 27939U 03042A   26140.50964274  .00000639  00000+0  10681-3 0  9995
2 27939  98.3465 324.0878 0011296   3.4893  80.9781 14.73412761211479
